{"type": "FeatureCollection", "features": [ {"type": "Feature", "properties": {"norad_id": 41335, "name": "SENTINEL-3A", "group": "resource", "lat": -79.20213756283302, "lon": 175.02442984396617, "alt_km": 810.6411172669441, "timestamp": "2025-12-08T15:42:49.435659+00:00", "meta": {"OBJECT_NAME": "SENTINEL-3A", "OBJECT_ID": "2016-011A", "EPOCH": "2025-12-08T07:45:00.453024", "MEAN_MOTION": 14.26744221, "ECCENTRICITY": 9.617e-05, "INCLINATION": 98.6212, "RA_OF_ASC_NODE": 47.3964, "ARG_OF_PERICENTER": 92.5963, "MEAN_ANOMALY": 267.5328, "EPHEMERIS_TYPE": 0, "CLASSIFICATION_TYPE": "U", "NORAD_CAT_ID": 41335, "ELEMENT_SET_NO": 999, "REV_AT_EPOCH": 51084, "BSTAR": 0.00014698692, "MEAN_MOTION_DOT": 3.12e-06, "MEAN_MOTION_DDOT": 0}, "tle": {"line1": "1 41335U 16011A   25342.32292191  .00000312  00000+0  14699-3 0  9997", "line2": "2 41335  98.6212  47.3964 0000961  92.5963 267.5328 14.26744221510843"}}, "geometry": {"type": "Point", "coordinates": [175.02442984396617, -79.20213756283302]}}, {"type": "Feature", "properties": {"norad_id": 41556, "name": "ZIYUAN 3-2 (ZY 3-2)", "group": "resource", "lat": 63.614516487304876, "lon": 41.69146280724135, "alt_km": 503.397017587994, "timestamp": "2025-12-08T15:42:49.435670+00:00", "meta": {"OBJECT_NAME": "ZIYUAN 3-2 (ZY 3-2)", "OBJECT_ID": "2016-033A", "EPOCH": "2025-12-08T05:57:33.878592", "MEAN_MOTION": 15.21403441, "ECCENTRICITY": 0.00124035, "INCLINATION": 97.4045, "RA_OF_ASC_NODE": 56.4892, "ARG_OF_PERICENTER": 266.6629, "MEAN_ANOMALY": 93.3188, "EPHEMERIS_TYPE": 0, "CLASSIFICATION_TYPE": "U", "NORAD_CAT_ID": 41556, "ELEMENT_SET_NO": 999, "REV_AT_EPOCH": 52895, "BSTAR": 0.00043507433, "MEAN_MOTION_DOT": 9.717e-05, "MEAN_MOTION_DDOT": 0}, "tle": {"line1": "1 41556U 16033A   25342.24830878  .00009717  00000+0  43507-3 0  9995", "line2": "2 41556  97.4045  56.4892 0012403 266.6629  93.3188 15.21403441528959"}}, "geometry": {"type": "Point", "coordinates": [41.69146280724135, 63.614516487304876]}}, {"type": "Feature", "properties": {"norad_id": 41599, "name": "CARTOSAT-2C", "group": "resource", "lat": 40.10767964234146, "lon": 33.5958827241301, "alt_km": 499.0708556817499, "timestamp": "2025-12-08T15:42:49.435680+00:00", "meta": {"OBJECT_NAME": "CARTOSAT-2C", "OBJECT_ID": "2016-040A", "EPOCH": "2025-12-08T06:03:05.884416", "MEAN_MOTION": 15.1922753, "ECCENTRICITY": 0.00109224, "INCLINATION": 97.4767, "RA_OF_ASC_NODE": 39.5485, "ARG_OF_PERICENTER": 78.7878, "MEAN_ANOMALY": 281.4584, "EPHEMERIS_TYPE": 0, "CLASSIFICATION_TYPE": "U", "NORAD_CAT_ID": 41599, "ELEMENT_SET_NO": 999, "REV_AT_EPOCH": 52472, "BSTAR": 0.00033504605, "MEAN_MOTION_DOT": 7e-05, "MEAN_MOTION_DDOT": 0}, "tle": {"line1": "1 41599U 16040A   25342.25215144  .00007000  00000+0  33505-3 0  9994", "line2": "2 41599  97.4767  39.5485 0010922  78.7878 281.4584 15.19227530524720"}}, "geometry": {"type": "Point", "coordinates": [33.5958827241301, 40.10767964234146]}}, {"type": "Feature", "properties": {"norad_id": 41601, "name": "SKYSAT-C1", "group": "resource", "lat": -78.79364291912145, "lon": 161.68297129575694, "alt_km": 476.9399676256853, "timestamp": "2025-12-08T15:42:49.435691+00:00", "meta": {"OBJECT_NAME": "SKYSAT-C1", "OBJECT_ID": "2016-040C", "EPOCH": "2025-12-08T02:02:24.837216", "MEAN_MOTION": 15.32463134, "ECCENTRICITY": 0.00028858, "INCLINATION": 96.9826, "RA_OF_ASC_NODE": 19.3613, "ARG_OF_PERICENTER": 28.5503, "MEAN_ANOMALY": 331.5898, "EPHEMERIS_TYPE": 0, "CLASSIFICATION_TYPE": "U", "NORAD_CAT_ID": 41601, "ELEMENT_SET_NO": 999, "REV_AT_EPOCH": 52856, "BSTAR": 0.00036161405, "MEAN_MOTION_DOT": 0.00011269, "MEAN_MOTION_DDOT": 0}, "tle": {"line1": "1 41601U 16040C   25342.08500969  .00011269  00000+0  36161-3 0  9994", "line2": "2 41601  96.9826  19.3613 0002885  28.5503 331.5898 15.32463134528568"}}, "geometry": {"type": "Point", "coordinates": [161.68297129575694, -78.79364291912145]}}, {"type": "Feature", "properties": {"norad_id": 41603, "name": "LAPAN-A3", "group": "resource", "lat": 58.976390910391636, "lon": -31.675479588159124, "alt_km": 463.32675965824455, "timestamp": "2025-12-08T15:42:49.435702+00:00", "meta": {"OBJECT_NAME": "LAPAN-A3", "OBJECT_ID": "2016-040E", "EPOCH": "2025-12-08T06:02:44.106432", "MEAN_MOTION": 15.31497136, "ECCENTRICITY": 0.00102141, "INCLINATION": 97.1427, "RA_OF_ASC_NODE": 339.9713, "ARG_OF_PERICENTER": 350.7899, "MEAN_ANOMALY": 9.3154, "EPHEMERIS_TYPE": 0, "CLASSIFICATION_TYPE": "U", "NORAD_CAT_ID": 41603, "ELEMENT_SET_NO": 999, "REV_AT_EPOCH": 52557, "BSTAR": 0.00019647142, "MEAN_MOTION_DOT": 5.91e-05, "MEAN_MOTION_DDOT": 0}, "tle": {"line1": "1 41603U 16040E   25342.25189938  .00005910  00000+0  19647-3 0  9990", "line2": "2 41603  97.1427 339.9713 0010214 350.7899   9.3154 15.31497136525576"}}, "geometry": {"type": "Point", "coordinates": [-31.675479588159124, 58.976390910391636]}}, {"type": "Feature", "properties": {"norad_id": 41604, "name": "BIROS", "group": "resource", "lat": 57.74526102763492, "lon": -154.73216594758478, "alt_km": 300.81635094796457, "timestamp": "2025-12-08T15:42:49.435712+00:00", "meta": {"OBJECT_NAME": "BIROS", "OBJECT_ID": "2016-040F", "EPOCH": "2025-12-08T01:35:28.409856", "MEAN_MOTION": 15.87749051, "ECCENTRICITY": 0.00030511, "INCLINATION": 97.0682, "RA_OF_ASC_NODE": 13.3176, "ARG_OF_PERICENTER": 156.7291, "MEAN_ANOMALY": 203.412, "EPHEMERIS_TYPE": 0, "CLASSIFICATION_TYPE": "U", "NORAD_CAT_ID": 41604, "ELEMENT_SET_NO": 999, "REV_AT_EPOCH": 52798, "BSTAR": 0.0006508575, "MEAN_MOTION_DOT": 0.00176409, "MEAN_MOTION_DDOT": 0}, "tle": {"line1": "1 41604U 16040F   25342.06630104  .00176409  00000+0  65086-3 0  9996", "line2": "2 41604  97.0682  13.3176 0003051 156.7291 203.4120 15.87749051527980"}}, "geometry": {"type": "Point", "coordinates": [-154.73216594758478, 57.74526102763492]}}, {"type": "Feature", "properties": {"norad_id": 41727, "name": "GAOFEN-3", "group": "resource", "lat": 66.55426559885728, "lon": -31.627033127509456, "alt_km": 743.6315721392339, "timestamp": "2025-12-08T15:42:49.435723+00:00", "meta": {"OBJECT_NAME": "GAOFEN-3", "OBJECT_ID": "2016-049A", "EPOCH": "2025-12-08T07:04:26.812128", "MEAN_MOTION": 14.42212202, "ECCENTRICITY": 0.00014892, "INCLINATION": 98.404, "RA_OF_ASC_NODE": 347.9489, "ARG_OF_PERICENTER": 69.1904, "MEAN_ANOMALY": 290.9445, "EPHEMERIS_TYPE": 0, "CLASSIFICATION_TYPE": "U", "NORAD_CAT_ID": 41727, "ELEMENT_SET_NO": 999, "REV_AT_EPOCH": 49113, "BSTAR": 6.5518902e-05, "MEAN_MOTION_DOT": 1.72e-06, "MEAN_MOTION_DDOT": 0}, "tle": {"line1": "1 41727U 16049A   25342.29475477  .00000172  00000+0  65519-4 0  9991", "line2": "2 41727  98.4040 347.9489 0001489  69.1904 290.9445 14.42212202491134"}}, "geometry": {"type": "Point", "coordinates": [-31.627033127509456, 66.55426559885728]}}, {"type": "Feature", "properties": {"norad_id": 41771, "name": "SKYSAT-C4", "group": "resource", "lat": 54.43049025129682, "lon": -1.7620066516670867, "alt_km": 434.7462962032896, "timestamp": "2025-12-08T15:42:49.435733+00:00", "meta": {"OBJECT_NAME": "SKYSAT-C4", "OBJECT_ID": "2016-058B", "EPOCH": "2025-12-08T07:41:20.503680", "MEAN_MOTION": 15.42059447, "ECCENTRICITY": 0.00011026, "INCLINATION": 96.9372, "RA_OF_ASC_NODE": 7.723, "ARG_OF_PERICENTER": 133.4359, "MEAN_ANOMALY": 226.6981, "EPHEMERIS_TYPE": 0, "CLASSIFICATION_TYPE": "U", "NORAD_CAT_ID": 41771, "ELEMENT_SET_NO": 999, "REV_AT_EPOCH": 51599, "BSTAR": 0.0004033987, "MEAN_MOTION_DOT": 0.00017165, "MEAN_MOTION_DDOT": 0}, "tle": {"line1": "1 41771U 16058B   25342.32037620  .00017165  00000+0  40340-3 0  9992", "line2": "2 41771  96.9372   7.7230 0001102 133.4359 226.6981 15.42059447515993"}}, "geometry": {"type": "Point", "coordinates": [-1.7620066516670867, 54.43049025129682]}}, {"type": "Feature", "properties": {"norad_id": 41772, "name": "SKYSAT-C5", "group": "resource", "lat": 69.95684209848682, "lon": 6.660452135159393, "alt_km": 452.80696385150713, "timestamp": "2025-12-08T15:42:49.435743+00:00", "meta": {"OBJECT_NAME": "SKYSAT-C5", "OBJECT_ID": "2016-058C", "EPOCH": "2025-12-08T04:27:16.601184", "MEAN_MOTION": 15.35232133, "ECCENTRICITY": 0.00026836, "INCLINATION": 97.0768, "RA_OF_ASC_NODE": 26.1191, "ARG_OF_PERICENTER": 142.41, "MEAN_ANOMALY": 217.7332, "EPHEMERIS_TYPE": 0, "CLASSIFICATION_TYPE": "U", "NORAD_CAT_ID": 41772, "ELEMENT_SET_NO": 999, "REV_AT_EPOCH": 51446, "BSTAR": 0.00037630966, "MEAN_MOTION_DOT": 0.00012804, "MEAN_MOTION_DDOT": 0}, "tle": {"line1": "1 41772U 16058C   25342.18560881  .00012804  00000+0  37631-3 0  9991", "line2": "2 41772  97.0768  26.1191 0002683 142.4100 217.7332 15.35232133514464"}}, "geometry": {"type": "Point", "coordinates": [6.660452135159393, 69.95684209848682]}}, {"type": "Feature", "properties": {"norad_id": 41773, "name": "SKYSAT-C2", "group": "resource", "lat": 52.00090546280231, "lon": -1.741083104498444, "alt_km": 446.6550308281858, "timestamp": "2025-12-08T15:42:49.435754+00:00", "meta": {"OBJECT_NAME": "SKYSAT-C2", "OBJECT_ID": "2016-058D", "EPOCH": "2025-12-08T01:25:28.611552", "MEAN_MOTION": 15.37112071, "ECCENTRICITY": 0.00047035, "INCLINATION": 97.0359, "RA_OF_ASC_NODE": 6.7848, "ARG_OF_PERICENTER": 46.177, "MEAN_ANOMALY": 313.9864, "EPHEMERIS_TYPE": 0, "CLASSIFICATION_TYPE": "U", "NORAD_CAT_ID": 41773, "ELEMENT_SET_NO": 999, "REV_AT_EPOCH": 51564, "BSTAR": 0.00039740217, "MEAN_MOTION_DOT": 0.00014374, "MEAN_MOTION_DDOT": 0}, "tle": {"line1": "1 41773U 16058D   25342.05935893  .00014374  00000+0  39740-3 0  9994", "line2": "2 41773  97.0359   6.7848 0004703  46.1770 313.9864 15.37112071515642"}}, "geometry": {"type": "Point", "coordinates": [-1.741083104498444, 52.00090546280231]}}]}